STARLINK-33654          
1 63466U 25070G   26186.36767162  .00043877  00000+0  15928-2 0  9995
2 63466  43.0010 315.2310 0005464 286.4104  73.6147 15.27604406 70970
STARLINK-33697          
1 63467U 25070H   26185.71637318  .00043913  00000+0  15930-2 0  9997
2 63467  43.0004 318.9573 0001617 272.6426  87.4240 15.27637492 70872
STARLINK-33720          
1 63468U 25070J   26186.43691380  .00031395  00000+0  11451-2 0  9992
2 63468  43.0008 314.8901 0001755 247.5162 112.5504 15.27590655 70982
STARLINK-33587          
1 63469U 25070K   26186.42149056  .00026609  00000+0  97244-3 0  9997
2 63469  43.0008 314.7669 0002958 281.0196  79.0323 15.27596329 70989
STARLINK-33637          
1 63470U 25070L   26186.39980175 -.00099172  00000+0 -36542-2 0  9990
2 63470  43.0019 315.4676 0000825 179.7572 180.3280 15.27477878 70975
STARLINK-33744          
1 63471U 25070M   26186.38437038  .00024664  00000+0  90207-3 0  9996
2 63471  42.9998 315.3509 0001550 267.2231  92.8444 15.27606059 70979
STARLINK-33766          
1 63472U 25070N   26186.39337514  .00046121  00000+0  16741-2 0  9998
2 63472  43.0002 315.4226 0003677 295.7162  64.3310 15.27594250 70971
STARLINK-33765          
1 63473U 25070P   26186.37537974  .00032324  00000+0  11783-2 0  9990
2 63473  43.0000 315.2876 0001032 271.2806  88.7927 15.27599490 70971
STARLINK-33735          
1 63474U 25070Q   26186.35738816  .00024601  00000+0  89969-3 0  9998
2 63474  43.0017 315.1469 0000240 306.2489  53.8340 15.27610732 70978
STARLINK-33731          
1 63475U 25070R   26186.39722065  .00021737  00000+0  79657-3 0  9992
2 63475  42.9994 315.4476 0001393 215.0705 145.0056 15.27601456 70971
STARLINK-33718          
1 63476U 25070S   26186.40992745  .00036269  00000+0  13206-2 0  9992
2 63476  43.0012 314.6783 0002573 270.3939  89.6618 15.27590352 70981
STARLINK-33630          
1 63477U 25070T   26186.35915877  .00015609  00000+0  57536-3 0  9998
2 63477  42.9975 311.6846 0000480 218.3837 141.6981 15.27590132 71012
STARLINK-33695          
1 63478U 25070U   26186.41169205  .00022423  00000+0  82153-3 0  9997
2 63478  43.0002 311.2076 0001987 257.8749 102.1880 15.27593353 71029
STARLINK-33713          
1 63479U 25070V   26186.41554292 -.00029504  00000+0 -10680-2 0  9996
2 63479  43.0019 311.2394 0002384 278.6386  81.4195 15.27544392 71028
STARLINK-33721          
1 63480U 25070W   26186.41811824  .00024725  00000+0  90552-3 0  9990
2 63480  43.0043 311.2618 0002519 278.4260  81.6306 15.27560216 71024
STARLINK-33639          
1 63481U 25070X   26186.37200201  .00017915  00000+0  65876-3 0  9991
2 63481  42.9973 311.7711 0001017 247.2553 112.8192 15.27588763 71011
STARLINK-33688          
1 63483U 25070Z   26186.37922936  .00044367  00000+0  16109-2 0  9994
2 63483  42.9976 315.2947 0001238 242.5593 117.5133 15.27603800 70974
STARLINK-33700          
1 63484U 25070AA  26186.42533099  .00031938  00000+0  11635-2 0  9998
2 63484  43.0010 314.7782 0001932 252.1735 107.8906 15.27625401 70985
STARLINK-33687          
1 63485U 25070AB  26186.34837959  .00030274  00000+0  11040-2 0  9994
2 63485  43.0042 315.0218 0001651 175.8166 184.2700 15.27613182 70979
STARLINK-33716          
1 63486U 25070AC  26186.41891973  .00035964  00000+0  13095-2 0  9992
2 63486  43.0026 314.7429 0003433 281.7169  78.3298 15.27589468 70987
STARLINK-33754          
1 63487U 25070AD  26186.43948169  .00015348  00000+0  56613-3 0  9993
2 63487  43.0005 314.8904 0002812 277.0931  82.9600 15.27576617 70989
POSAT-2                 
1 63488U 25009DR  26186.63922937  .00014382  00000+0  80661-3 0  9990
2 63488  97.4834 261.3551 0007025  90.7415 269.4621 15.13453925 69439
HERMES-6                
1 63489U 25052BK  26186.01030975  .00009675  00000+0  40950-3 0  9999
2 63489  97.3982  78.2424 0008121 104.3224 255.8915 15.23360177 72543
STARLINK-33828          
1 63493U 25071A   26186.36808261  .00037076  00000+0  10682-2 0  9998
2 63493  53.1586 310.7312 0000734  77.0072 283.1013 15.35411110 70804
STARLINK-33819          
1 63494U 25071B   26186.35588333  .00050845  00000+0  15043-2 0  9998
2 63494  53.1598 310.6456 0000510 124.1812 235.9239 15.34431199 70807
STARLINK-33845          
1 63495U 25071C   26186.39705574  .00028280  00000+0  96287-3 0  9999
2 63495  53.1605 313.0297 0001123 110.4719 249.6403 15.30214899 70775
STARLINK-33829          
1 63496U 25071D   26186.38841732  .00024946  00000+0  81233-3 0  9996
2 63496  53.1587 312.9762 0001284 132.2280 227.8830 15.31724900 70731
STARLINK-33815          
1 63497U 25071E   26186.31849947  .00025810  00000+0  83986-3 0  9994
2 63497  53.1594 313.2559 0001249  94.9748 265.1396 15.31728425 70785
STARLINK-33833          
1 63498U 25071F   26186.32783505  .00027319  00000+0  88808-3 0  9997
2 63498  53.1602 313.3071 0000821 181.4053 178.6946 15.31728388 70789
STARLINK-33534          
1 63499U 25071G   26186.35108207  .00063107  00000+0  20288-2 0  9993
2 63499  53.1611 312.7473 0001458  82.6429 277.4738 15.31691672 70776
