OBJECT_NAME,OBJECT_ID,EPOCH,MEAN_MOTION,ECCENTRICITY,INCLINATION,RA_OF_ASC_NODE,ARG_OF_PERICENTER,MEAN_ANOMALY,EPHEMERIS_TYPE,CLASSIFICATION_TYPE,NORAD_CAT_ID,ELEMENT_SET_NO,REV_AT_EPOCH,BSTAR,MEAN_MOTION_DOT,MEAN_MOTION_DDOT
STARLINK-33654,2025-070G,2026-07-05T08:49:26.827968,15.27604406,.00054649,43.0010,315.2310,286.4104,73.6147,0,U,63466,999,7097,.15928005E-2,.43877E-3,0
STARLINK-33697,2025-070H,2026-07-04T17:11:34.642752,15.27637492,.00016172,43.0004,318.9573,272.6426,87.4240,0,U,63467,999,7087,.15929938E-2,.43913E-3,0
STARLINK-33720,2025-070J,2026-07-05T10:29:09.352320,15.27590655,.00017559,43.0008,314.8901,247.5162,112.5504,0,U,63468,999,7098,.11451468E-2,.31395E-3,0
STARLINK-33587,2025-070K,2026-07-05T10:06:56.784384,15.27596329,.00029587,43.0008,314.7669,281.0196,79.0323,0,U,63469,999,7098,.97243658E-3,.26609E-3,0
STARLINK-33637,2025-070L,2026-07-05T09:35:42.871200,15.27477878,.00008257,43.0019,315.4676,179.7572,180.3280,0,U,63470,999,7097,-.36542288E-2,-.99172E-3,0
STARLINK-33744,2025-070M,2026-07-05T09:13:29.600832,15.27606059,.00015503,42.9998,315.3509,267.2231,92.8444,0,U,63471,999,7097,.90207485E-3,.24664E-3,0
STARLINK-33766,2025-070N,2026-07-05T09:26:27.612096,15.27594250,.00036773,43.0002,315.4226,295.7162,64.3310,0,U,63472,999,7097,.16741195E-2,.46121E-3,0
STARLINK-33765,2025-070P,2026-07-05T09:00:32.809536,15.27599490,.00010323,43.0000,315.2876,271.2806,88.7927,0,U,63473,999,7097,.11783253E-2,.32324E-3,0
STARLINK-33735,2025-070Q,2026-07-05T08:34:38.337024,15.27610732,.00002404,43.0017,315.1469,306.2489,53.8340,0,U,63474,999,7097,.89969109E-3,.24601E-3,0
STARLINK-33731,2025-070R,2026-07-05T09:31:59.864160,15.27601456,.00013939,42.9994,315.4476,215.0705,145.0056,0,U,63475,999,7097,.79656866E-3,.21737E-3,0
STARLINK-33718,2025-070S,2026-07-05T09:50:17.731680,15.27590352,.00025736,43.0012,314.6783,270.3939,89.6618,0,U,63476,999,7098,.13205652E-2,.36269E-3,0
STARLINK-33630,2025-070T,2026-07-05T08:37:11.317728,15.27590132,.00004806,42.9975,311.6846,218.3837,141.6981,0,U,63477,999,7101,.5753569E-3,.15609E-3,0
STARLINK-33695,2025-070U,2026-07-05T09:52:50.193120,15.27593353,.00019874,43.0002,311.2076,257.8749,102.1880,0,U,63478,999,7102,.8215257E-3,.22423E-3,0
STARLINK-33713,2025-070V,2026-07-05T09:58:22.908288,15.27544392,.0002384,43.0019,311.2394,278.6386,81.4195,0,U,63479,999,7102,-.10679711E-2,-.29504E-3,0
STARLINK-33721,2025-070W,2026-07-05T10:02:05.415936,15.27560216,.00025194,43.0043,311.2618,278.4260,81.6306,0,U,63480,999,7102,.9055205E-3,.24725E-3,0
STARLINK-33639,2025-070X,2026-07-05T08:55:40.973664,15.27588763,.00010172,42.9973,311.7711,247.2553,112.8192,0,U,63481,999,7101,.65876322E-3,.17915E-3,0
STARLINK-33688,2025-070Z,2026-07-05T09:06:05.416704,15.27603800,.00012387,42.9976,315.2947,242.5593,117.5133,0,U,63483,999,7097,.16109457E-2,.44367E-3,0
STARLINK-33700,2025-070AA,2026-07-05T10:12:28.597536,15.27625401,.00019323,43.0010,314.7782,252.1735,107.8906,0,U,63484,999,7098,.11634926E-2,.31938E-3,0
STARLINK-33687,2025-070AB,2026-07-05T08:21:39.996576,15.27613182,.00016516,43.0042,315.0218,175.8166,184.2700,0,U,63485,999,7097,.11040453E-2,.30274E-3,0
STARLINK-33716,2025-070AC,2026-07-05T10:03:14.664672,15.27589468,.00034332,43.0026,314.7429,281.7169,78.3298,0,U,63486,999,7098,.13095475E-2,.35964E-3,0
STARLINK-33754,2025-070AD,2026-07-05T10:32:51.218016,15.27576617,.00028127,43.0005,314.8904,277.0931,82.9600,0,U,63487,999,7098,.56612824E-3,.15348E-3,0
POSAT-2,2025-009DR,2026-07-05T15:20:29.417568,15.13453925,.00070257,97.4834,261.3551,90.7415,269.4621,0,U,63488,999,6943,.80661064E-3,.14382E-3,0
HERMES-6,2025-052BK,2026-07-05T00:14:50.762400,15.23360177,.00081215,97.3982,78.2424,104.3224,255.8915,0,U,63489,999,7254,.40949936E-3,.9675E-4,0
STARLINK-33828,2025-071A,2026-07-05T08:50:02.337504,15.35411110,.00007342,53.1586,310.7312,77.0072,283.1013,0,U,63493,999,7080,.10681927E-2,.37076E-3,0
STARLINK-33819,2025-071B,2026-07-05T08:32:28.319712,15.34431199,.000051,53.1598,310.6456,124.1812,235.9239,0,U,63494,999,7080,.15043178E-2,.50845E-3,0
STARLINK-33845,2025-071C,2026-07-05T09:31:45.615936,15.30214899,.00011237,53.1605,313.0297,110.4719,249.6403,0,U,63495,999,7077,.96287195E-3,.2828E-3,0
STARLINK-33829,2025-071D,2026-07-05T09:19:19.256448,15.31724900,.00012849,53.1587,312.9762,132.2280,227.8830,0,U,63496,999,7073,.81233399E-3,.24946E-3,0
STARLINK-33815,2025-071E,2026-07-05T07:38:38.354208,15.31728425,.00012495,53.1594,313.2559,94.9748,265.1396,0,U,63497,999,7078,.83985937E-3,.2581E-3,0
STARLINK-33833,2025-071F,2026-07-05T07:52:04.948320,15.31728388,.00008219,53.1602,313.3071,181.4053,178.6946,0,U,63498,999,7078,.88808443E-3,.27319E-3,0
STARLINK-33534,2025-071G,2026-07-05T08:25:33.490848,15.31691672,.0001458,53.1611,312.7473,82.6429,277.4738,0,U,63499,999,7077,.20287518E-2,.63107E-3,0
